{
    "links": {
        "self": "http://www.neowsapp.com/rest/v1/neo/3840793?api_key=iIulBulltgU6a56xZRHN4H3l9WmuAYTsLGpBGhQ2"
    },
    "id": "3840793",
    "neo_reference_id": "3840793",
    "name": "(2019 GN1)",
    "designation": "2019 GN1",
    "nasa_jpl_url": "http://ssd.jpl.nasa.gov/sbdb.cgi?sstr=3840793",
    "absolute_magnitude_h": 25.6,
    "estimated_diameter": {
        "kilometers": {
            "estimated_diameter_min": 0.0201629919,
            "estimated_diameter_max": 0.0450858206
        },
        "meters": {
            "estimated_diameter_min": 20.1629919443,
            "estimated_diameter_max": 45.0858206172
        },
        "miles": {
            "estimated_diameter_min": 0.0125286985,
            "estimated_diameter_max": 0.0280150214
        },
        "feet": {
            "estimated_diameter_min": 66.1515504905,
            "estimated_diameter_max": 147.9193637137
        }
    },
    "is_potentially_hazardous_asteroid": false,
    "close_approach_data": [
        {
            "close_approach_date": "2019-03-30",
            "close_approach_date_full": "2019-Mar-30 17:02",
            "epoch_date_close_approach": 1553965320000,
            "relative_velocity": {
                "kilometers_per_second": "7.2519918595",
                "kilometers_per_hour": "26107.1706940629",
                "miles_per_hour": "16221.9805904304"
            },
            "miss_distance": {
                "astronomical": "0.1035596482",
                "lunar": "40.2847031498",
                "kilometers": "15492302.788669334",
                "miles": "9626470.5675074492"
            },
            "orbiting_body": "Earth"
        }
    ],
    "orbital_data": {
        "orbit_id": "2",
        "orbit_determination_date": "2019-04-15 14:25:52",
        "first_observation_date": "2019-04-03",
        "last_observation_date": "2019-04-09",
        "data_arc_in_days": 6,
        "observations_used": 12,
        "orbit_uncertainty": "8",
        "minimum_orbit_intersection": ".103177",
        "jupiter_tisserand_invariant": "3.290",
        "epoch_osculation": "2458579.5",
        "eccentricity": ".5442378660102435",
        "semi_major_axis": "2.408739320448892",
        "inclination": "8.313983660004236",
        "ascending_node_longitude": "195.0016329901195",
        "orbital_period": "1365.473040870349",
        "perihelion_distance": "1.097812172912823",
        "perihelion_argument": "347.0969439072855",
        "aphelion_distance": "3.719666467984961",
        "perihelion_time": "2458566.870568115989",
        "mean_anomaly": "3.329685275474916",
        "mean_motion": ".2636448975737645",
        "equinox": "J2000",
        "orbit_class": {
            "orbit_class_type": "AMO",
            "orbit_class_description": "Near-Earth asteroid orbits similar to that of 1221 Amor",
            "orbit_class_range": "1.017 AU < q (perihelion) < 1.3 AU"
        }
    },
    "is_sentry_object": false
}